SL-3 R/B                
1 13154U 82039B   25322.44309567  .00003349  00000+0  20615-3 0  9993
2 13154  81.1772 344.0391 0031716 332.7589  27.1971 15.09333250364855
SL-3 R/B                
1 13403U 82079B   25322.44360257  .00006253  00000+0  26076-3 0  9991
2 13403  81.1455 324.2957 0025648 178.4541 181.6776 15.23222793360757
SL-14 R/B               
1 13553U 82092B   25322.25617191  .00000883  00000+0  96827-4 0  9998
2 13553  82.5684 245.6066 0019267 314.5388 159.8478 14.86518102312372
SL-3 R/B                
1 13819U 83010B   25322.45354625  .00016197  00000+0  36926-3 0  9994
2 13819  81.1023 138.2436 0018237  74.0362 286.2888 15.42606595340775
SL-3 R/B                
1 14208U 83075B   25322.48433147  .00012801  00000+0  37103-3 0  9994
2 14208  97.6096 318.1671 0020923 267.1073  92.7776 15.35476093313078
COSMOS 1536             
1 14699U 84013A   25322.22291912  .00008380  00000+0  36318-3 0  9999
2 14699  82.5476 218.4673 0014004 321.8197  38.2046 15.22146288255659
SL-14 R/B               
1 14820U 84027B   25322.44675038  .00000677  00000+0  74875-4 0  9991
2 14820  82.5421 349.3396 0017559 346.9986  13.0775 14.85838598231118
SL-8 R/B                
1 15483U 85006B   25322.46586024  .00000369  00000+0  13138-3 0  9995
2 15483  74.0441 105.7926 0017724  45.5307  10.4581 14.37699761138046
SL-12 R/B(2)            
1 15772U 85042D   25322.41423450  .00000250  00000+0  13413-3 0  9999
2 15772  71.1079 322.8115 0037453 297.0656 167.8519 14.21941025 98573
SL-14 R/B               
1 15945U 85069B   25321.99397494  .00000824  00000+0  90661-4 0  9998
2 15945  82.5244 129.9675 0018297 198.2752 161.7809 14.86281711156240
SL-16 R/B               
1 16182U 85097B   25322.49597205  .00000301  00000+0  17487-3 0  9995
2 16182  71.0044  14.6437 0005473  56.0134  43.5029 14.16578435 71486
SL-14 R/B               
1 16496U 86006B   25322.46926245  .00000969  00000+0  10108-3 0  9994
2 16496  82.5284   4.3879 0075228 281.6207  77.6572 14.86624571132686
