CCSDS_OMM_VERS = 2.0
CREATION_DATE  = 
ORIGINATOR     = 

OBJECT_NAME    = SL-3 R/B
OBJECT_ID      = 1982-039B
CENTER_NAME    = EARTH
REF_FRAME      = TEME
TIME_SYSTEM    = UTC
MEAN_ELEMENT_THEORY = SGP/SGP4

EPOCH          = 2025-11-18T10:38:03.465888
MEAN_MOTION    = 15.09333250
ECCENTRICITY   = .0031716
INCLINATION    = 81.1772
RA_OF_ASC_NODE = 344.0391
ARG_OF_PERICENTER = 332.7589
MEAN_ANOMALY   = 27.1971

EPHEMERIS_TYPE = 0
CLASSIFICATION_TYPE = U
NORAD_CAT_ID   = 13154
ELEMENT_SET_NO = 999
REV_AT_EPOCH   = 36485
BSTAR          = .20615E-3
MEAN_MOTION_DOT = .3349E-4
MEAN_MOTION_DDOT = 0

CCSDS_OMM_VERS = 2.0
CREATION_DATE  = 
ORIGINATOR     = 

OBJECT_NAME    = SL-3 R/B
OBJECT_ID      = 1982-079B
CENTER_NAME    = EARTH
REF_FRAME      = TEME
TIME_SYSTEM    = UTC
MEAN_ELEMENT_THEORY = SGP/SGP4

EPOCH          = 2025-11-18T10:38:47.262048
MEAN_MOTION    = 15.23222793
ECCENTRICITY   = .0025648
INCLINATION    = 81.1455
RA_OF_ASC_NODE = 324.2957
ARG_OF_PERICENTER = 178.4541
MEAN_ANOMALY   = 181.6776

EPHEMERIS_TYPE = 0
CLASSIFICATION_TYPE = U
NORAD_CAT_ID   = 13403
ELEMENT_SET_NO = 999
REV_AT_EPOCH   = 36075
BSTAR          = .26076E-3
MEAN_MOTION_DOT = .6253E-4
MEAN_MOTION_DDOT = 0

CCSDS_OMM_VERS = 2.0
CREATION_DATE  = 
ORIGINATOR     = 

OBJECT_NAME    = SL-14 R/B
OBJECT_ID      = 1982-092B
CENTER_NAME    = EARTH
REF_FRAME      = TEME
TIME_SYSTEM    = UTC
MEAN_ELEMENT_THEORY = SGP/SGP4

EPOCH          = 2025-11-18T06:08:53.253024
MEAN_MOTION    = 14.86518102
ECCENTRICITY   = .0019267
INCLINATION    = 82.5684
RA_OF_ASC_NODE = 245.6066
ARG_OF_PERICENTER = 314.5388
MEAN_ANOMALY   = 159.8478

EPHEMERIS_TYPE = 0
CLASSIFICATION_TYPE = U
NORAD_CAT_ID   = 13553
ELEMENT_SET_NO = 999
REV_AT_EPOCH   = 31237
BSTAR          = .96827E-4
MEAN_MOTION_DOT = .883E-5
MEAN_MOTION_DDOT = 0

CCSDS_OMM_VERS = 2.0
CREATION_DATE  = 
ORIGINATOR     = 

OBJECT_NAME    = SL-3 R/B
OBJECT_ID      = 1983-010B
CENTER_NAME    = EARTH
REF_FRAME      = TEME
TIME_SYSTEM    = UTC
MEAN_ELEMENT_THEORY = SGP/SGP4

EPOCH          = 2025-11-18T10:53:06.396000
MEAN_MOTION    = 15.42606595
ECCENTRICITY   = .0018237
INCLINATION    = 81.1023
RA_OF_ASC_NODE = 138.2436
ARG_OF_PERICENTER = 74.0362
MEAN_ANOMALY   = 286.2888

EPHEMERIS_TYPE = 0
CLASSIFICATION_TYPE = U
NORAD_CAT_ID   = 13819
ELEMENT_SET_NO = 999
REV_AT_EPOCH   = 34077
BSTAR          = .36926E-3
MEAN_MOTION_DOT = .16197E-3
MEAN_MOTION_DDOT = 0

CCSDS_OMM_VERS = 2.0
CREATION_DATE  = 
ORIGINATOR     = 

OBJECT_NAME    = SL-3 R/B
OBJECT_ID      = 1983-075B
CENTER_NAME    = EARTH
REF_FRAME      = TEME
TIME_SYSTEM    = UTC
MEAN_ELEMENT_THEORY = SGP/SGP4

EPOCH          = 2025-11-18T11:37:26.239008
MEAN_MOTION    = 15.35476093
ECCENTRICITY   = .0020923
INCLINATION    = 97.6096
RA_OF_ASC_NODE = 318.1671
ARG_OF_PERICENTER = 267.1073
MEAN_ANOMALY   = 92.7776

EPHEMERIS_TYPE = 0
CLASSIFICATION_TYPE = U
NORAD_CAT_ID   = 14208
ELEMENT_SET_NO = 999
REV_AT_EPOCH   = 31307
BSTAR          = .37103E-3
MEAN_MOTION_DOT = .12801E-3
MEAN_MOTION_DDOT = 0

CCSDS_OMM_VERS = 2.0
CREATION_DATE  = 
ORIGINATOR     = 

OBJECT_NAME    = COSMOS 1536
OBJECT_ID      = 1984-013A
CENTER_NAME    = EARTH
REF_FRAME      = TEME
TIME_SYSTEM    = UTC
MEAN_ELEMENT_THEORY = SGP/SGP4

EPOCH          = 2025-11-18T05:21:00.211968
MEAN_MOTION    = 15.22146288
ECCENTRICITY   = .0014004
INCLINATION    = 82.5476
RA_OF_ASC_NODE = 218.4673
ARG_OF_PERICENTER = 321.8197
MEAN_ANOMALY   = 38.2046

EPHEMERIS_TYPE = 0
CLASSIFICATION_TYPE = U
NORAD_CAT_ID   = 14699
ELEMENT_SET_NO = 999
REV_AT_EPOCH   = 25565
BSTAR          = .36318E-3
MEAN_MOTION_DOT = .838E-4
MEAN_MOTION_DDOT = 0

CCSDS_OMM_VERS = 2.0
CREATION_DATE  = 
ORIGINATOR     = 

OBJECT_NAME    = SL-14 R/B
OBJECT_ID      = 1984-027B
CENTER_NAME    = EARTH
REF_FRAME      = TEME
TIME_SYSTEM    = UTC
MEAN_ELEMENT_THEORY = SGP/SGP4

EPOCH          = 2025-11-18T10:43:19.232832
MEAN_MOTION    = 14.85838598
ECCENTRICITY   = .0017559
INCLINATION    = 82.5421
RA_OF_ASC_NODE = 349.3396
ARG_OF_PERICENTER = 346.9986
MEAN_ANOMALY   = 13.0775

EPHEMERIS_TYPE = 0
CLASSIFICATION_TYPE = U
NORAD_CAT_ID   = 14820
ELEMENT_SET_NO = 999
REV_AT_EPOCH   = 23111
BSTAR          = .74875E-4
MEAN_MOTION_DOT = .677E-5
MEAN_MOTION_DDOT = 0

CCSDS_OMM_VERS = 2.0
CREATION_DATE  = 
ORIGINATOR     = 

OBJECT_NAME    = SL-8 R/B
OBJECT_ID      = 1985-006B
CENTER_NAME    = EARTH
REF_FRAME      = TEME
TIME_SYSTEM    = UTC
MEAN_ELEMENT_THEORY = SGP/SGP4

EPOCH          = 2025-11-18T11:10:50.324736
MEAN_MOTION    = 14.37699761
ECCENTRICITY   = .0017724
INCLINATION    = 74.0441
RA_OF_ASC_NODE = 105.7926
ARG_OF_PERICENTER = 45.5307
MEAN_ANOMALY   = 10.4581

EPHEMERIS_TYPE = 0
CLASSIFICATION_TYPE = U
NORAD_CAT_ID   = 15483
ELEMENT_SET_NO = 999
REV_AT_EPOCH   = 13804
BSTAR          = .13138E-3
MEAN_MOTION_DOT = .369E-5
MEAN_MOTION_DDOT = 0

CCSDS_OMM_VERS = 2.0
CREATION_DATE  = 
ORIGINATOR     = 

OBJECT_NAME    = SL-12 R/B(2)
OBJECT_ID      = 1985-042D
CENTER_NAME    = EARTH
REF_FRAME      = TEME
TIME_SYSTEM    = UTC
MEAN_ELEMENT_THEORY = SGP/SGP4

EPOCH          = 2025-11-18T09:56:29.860800
MEAN_MOTION    = 14.21941025
ECCENTRICITY   = .0037453
INCLINATION    = 71.1079
RA_OF_ASC_NODE = 322.8115
ARG_OF_PERICENTER = 297.0656
MEAN_ANOMALY   = 167.8519

EPHEMERIS_TYPE = 0
CLASSIFICATION_TYPE = U
NORAD_CAT_ID   = 15772
ELEMENT_SET_NO = 999
REV_AT_EPOCH   = 9857
BSTAR          = .13413E-3
MEAN_MOTION_DOT = .25E-5
MEAN_MOTION_DDOT = 0

CCSDS_OMM_VERS = 2.0
CREATION_DATE  = 
ORIGINATOR     = 

OBJECT_NAME    = SL-14 R/B
OBJECT_ID      = 1985-069B
CENTER_NAME    = EARTH
REF_FRAME      = TEME
TIME_SYSTEM    = UTC
MEAN_ELEMENT_THEORY = SGP/SGP4

EPOCH          = 2025-11-17T23:51:19.433952
MEAN_MOTION    = 14.86281711
ECCENTRICITY   = .0018297
INCLINATION    = 82.5244
RA_OF_ASC_NODE = 129.9675
ARG_OF_PERICENTER = 198.2752
MEAN_ANOMALY   = 161.7809

EPHEMERIS_TYPE = 0
CLASSIFICATION_TYPE = U
NORAD_CAT_ID   = 15945
ELEMENT_SET_NO = 999
REV_AT_EPOCH   = 15624
BSTAR          = .90661E-4
MEAN_MOTION_DOT = .824E-5
MEAN_MOTION_DDOT = 0

CCSDS_OMM_VERS = 2.0
CREATION_DATE  = 
ORIGINATOR     = 

OBJECT_NAME    = SL-16 R/B
OBJECT_ID      = 1985-097B
CENTER_NAME    = EARTH
REF_FRAME      = TEME
TIME_SYSTEM    = UTC
MEAN_ELEMENT_THEORY = SGP/SGP4

EPOCH          = 2025-11-18T11:54:11.985120
MEAN_MOTION    = 14.16578435
ECCENTRICITY   = .0005473
INCLINATION    = 71.0044
RA_OF_ASC_NODE = 14.6437
ARG_OF_PERICENTER = 56.0134
MEAN_ANOMALY   = 43.5029

EPHEMERIS_TYPE = 0
CLASSIFICATION_TYPE = U
NORAD_CAT_ID   = 16182
ELEMENT_SET_NO = 999
REV_AT_EPOCH   = 7148
BSTAR          = .17487E-3
MEAN_MOTION_DOT = .301E-5
MEAN_MOTION_DDOT = 0

CCSDS_OMM_VERS = 2.0
CREATION_DATE  = 
ORIGINATOR     = 

OBJECT_NAME    = SL-14 R/B
OBJECT_ID      = 1986-006B
CENTER_NAME    = EARTH
REF_FRAME      = TEME
TIME_SYSTEM    = UTC
MEAN_ELEMENT_THEORY = SGP/SGP4

EPOCH          = 2025-11-18T11:15:44.275680
MEAN_MOTION    = 14.86624571
ECCENTRICITY   = .0075228
INCLINATION    = 82.5284
RA_OF_ASC_NODE = 4.3879
ARG_OF_PERICENTER = 281.6207
MEAN_ANOMALY   = 77.6572

EPHEMERIS_TYPE = 0
CLASSIFICATION_TYPE = U
NORAD_CAT_ID   = 16496
ELEMENT_SET_NO = 999
REV_AT_EPOCH   = 13268
BSTAR          = .10108E-3
MEAN_MOTION_DOT = .969E-5
MEAN_MOTION_DDOT = 0

